KUIPER-00074            
1 64821U 25151F   25325.45290466  .00005687  00000+0  77451-3 0  9990
2 64821  51.9023  49.2080 0012740 270.8049  89.1453 14.79891527 19418
KUIPER-00075            
1 64822U 25151G   25325.42307646  .00066622  00000+0  16379-2 0  9994
2 64822  51.8762  27.6093 0003455 242.8731 117.1905 15.40013657 19718
KUIPER-00076            
1 64823U 25151H   25325.45021593 -.00000436  00000+0 -28099-4 0  9999
2 64823  51.9025  51.7170 0003837 264.2803  95.7722 14.79893310 19382
KUIPER-00077            
1 64824U 25151J   25325.44478036  .00003113  00000+0  43715-3 0  9991
2 64824  51.9023  56.7427 0006320 214.1312 145.9244 14.79942606 19313
KUIPER-00078            
1 64825U 25151K   25325.48131506  .00005521  00000+0  75334-3 0  9991
2 64825  51.9010  54.0786 0007088 284.6783  75.3394 14.79890115 19358
KUIPER-00079            
1 64826U 25151L   25325.66672454  .00034469  00000+0  49316-2 0  9997
2 64826  51.9000  58.2453 0011419 242.2413 237.2437 14.76261171  3089
KUIPER-00080            
1 64827U 25151M   25325.47585042  .00006373  00000+0  86396-3 0  9996
2 64827  51.9011  59.0935 0004934 259.0097 101.0311 14.79945262 19285
KUIPER-00082            
1 64828U 25151N   25325.45559215  .00003599  00000+0  50061-3 0  9995
2 64828  51.9022  46.6942 0004675 272.8328  87.2099 14.79958706 19454
KUIPER-00083            
1 64829U 25151P   25325.44752100  .00001992  00000+0  29062-3 0  9995
2 64829  51.9004  54.2276 0009979 244.7330 115.2598 14.79887216 20537
KUIPER-00084            
1 64830U 25151Q   25325.57173396 -.00003141  00000+0 -38216-3 0  9996
2 64830  51.9004  63.6651 0011365 214.6538 145.3685 14.79959703 19224
KUIPER-00085            
1 64831U 25151R   25325.42181417 -.00002241  00000+0 -26469-3 0  9991
2 64831  51.9046  46.8549 0007275 252.4218 107.5950 14.79943927 19440
KUIPER-00086            
1 64832U 25151S   25325.47851892 -.00005921  00000+0 -75219-3 0  9993
2 64832  51.9026  56.5940 0010861 238.7876 121.2023 14.79662035 19312
KUIPER-00087            
1 64833U 25151T   25325.43001907  .00016420  00000+0  21730-2 0  9996
2 64833  51.9003  39.3105 0000371 281.3291  78.7630 14.80022510 19545
KUIPER-00089            
1 64834U 25151U   25325.66672454  .00044781  00000+0  63433-2 0  9990
2 64834  51.9017  43.1973 0001128 331.1530 273.2498 14.76600905  5788
KUIPER-00090            
1 64835U 25151V   25325.66672454 -.00014108  00000+0 -14578-2 0  9999
2 64835  51.9002  35.0491 0004652 347.8638 241.8641 14.89119578  3814
KUIPER-00091            
1 64836U 25151W   25325.42728970  .00005978  00000+0  81180-3 0  9996
2 64836  51.9015  41.8287 0007406 294.5701  65.4490 14.79959379 19512
KUIPER-00092            
1 64837U 25151X   25325.66672454  .00043618  00000+0  57317-2 0  9995
2 64837  51.9017  48.2658 0006187 238.7187   1.2623 14.79788261  5219
KUIPER-00093            
1 64838U 25151Y   25325.55148127 -.00000218  00000+0  83476-6 0  9998
2 64838  51.9016  51.2642 0013584 250.3305 109.6191 14.79945283 19393
KUIPER-00094            
1 64839U 25151Z   25325.46600670  .00009606  00000+0  70243-3 0  9999
2 64839  51.8907  40.0842 0004934 276.7380  83.3031 15.04194908 19541
KUIPER-00081            
1 65132U 25171A   25325.66672454 -.00800732  00000+0 -37519-1 0  9997
2 65132  51.8833 271.8092 0003535 130.8341 258.8968 15.21876478  5507
KUIPER-00088            
1 65133U 25171B   25324.62377709  .00003952  00000+0  49500-3 0  9990
2 65133  51.8992 287.6795 0008239 111.2087 248.9758 14.84181236 16648
KUIPER-00095            
1 65134U 25171C   25325.66672454 -.00549363  00000+0 -27593-1 0  9990
2 65134  51.8808 272.7279 0005601 117.5480 132.1542 15.18973129  2629
KUIPER-00096            
1 65135U 25171D   25325.66672454 -.00021850  00000+0 -19899-2 0  9998
2 65135  51.8922 276.3641 0011026 140.3954 112.1034 14.94366783  5800
KUIPER-00097            
1 65136U 25171E   25325.66672454 -.00758766  00000+0 -86048-1 0  9991
2 65136  51.9119 278.6337 0011127 142.9599 318.4007 14.88608869  5103
KUIPER-00098            
1 65137U 25171F   25325.66672454  .00031889  00000+0  41984-2 0  9991
2 65137  51.9004 280.7639 0008253 139.2727  87.7360 14.79851071  3879
KUIPER-00099            
1 65138U 25171G   25325.66672454 -.00852457  00000+0 -50386-1 0  9991
2 65138  51.9048 273.6960 0007414 153.6666  51.5325 15.13549397  5322
KUIPER-00100            
1 65139U 25171H   25325.66672454 -.00754487  00000+0 -37971-1 0  9991
2 65139  51.8848 272.7510 0003172 126.4358 164.4169 15.19292509  4880
KUIPER-00102            
1 65140U 25171J   25325.66672454 -.00868683  00000+0 -51918-1 0  9994
2 65140  51.8862 273.6776 0011512 137.4299   4.2270 15.13152535  5709
KUIPER-00103            
1 65141U 25171K   25325.31228044  .00019588  00000+0  25898-2 0  9998
2 65141  51.8990 289.8258 0006675 133.2960 226.8560 14.79941662 16668
KUIPER-00104            
1 65142U 25171L   25325.66672454 -.00797632  00000+0 -63566-1 0  9993
2 65142  51.8909 276.2569 0004165 148.1784 255.9210 15.02510421  3006
KUIPER-00105            
1 65143U 25171M   25325.66672454  .00008888  00000+0  11966-2 0  9998
2 65143  51.9003 283.3259 0013185 109.0850 132.9473 14.79774971  4933
KUIPER-00106            
1 65144U 25171N   25325.28110002  .00008340  00000+0  75285-3 0  9991
2 65144  51.8941 287.2893 0009895  97.8139 262.3954 14.96212234 16706
KUIPER-00107            
1 65145U 25171P   25325.66672454 -.00919135  00000+0 -41219-1 0  9991
2 65145  51.8817 271.8753 0006778 141.2784 171.1087 15.23255484  4447
KUIPER-00108            
1 65146U 25171Q   25325.66672454 -.00388734  00000+0 -44781-1 0  9994
2 65146  51.9089 278.4329 0009315 117.9356 189.1486 14.87548159  4655
KUIPER-00109            
1 65147U 25171R   25325.66672454 -.00821000  00000+0 -61072-1 0  9995
2 65147  51.8877 274.8705 0012098 129.4895 227.3169 15.05068519  5771
KUIPER-00110            
1 65148U 25171S   25325.66672454  .00005334  00000+0  72862-3 0  9999
2 65148  51.8992 285.4197 0011361 112.8119 169.1529 14.79881240  5003
KUIPER-00111            
1 65149U 25171T   25325.27516771 -.00003113  00000+0 -37781-3 0  9992
2 65149  51.8969 292.4752 0009990 119.6470 240.5488 14.80044391 16621
KUIPER-00112            
1 65150U 25171U   25325.66672454 -.00748587  00000+0 -58365-1 0  9998
2 65150  51.8915 274.6978 0009387 149.3145 211.4602 15.03122673  5602
KUIPER-00114            
1 65151U 25171V   25325.27306314  .00004706  00000+0  64590-3 0  9990
2 65151  51.9001 295.0240 0006530 106.3759 253.7922 14.79934966 16581
KUIPER-00115            
1 65152U 25171W   25325.28117148  .00006080  00000+0  82489-3 0  9991
2 65152  51.9014 287.4653 0010634 130.0555 230.1342 14.79959395 16697
KUIPER-00116            
1 65153U 25171X   25325.30961561  .00017421  00000+0  23067-2 0  9998
2 65153  51.8999 292.3885 0011279  92.6167 267.6086 14.79924966 16628
KUIPER-00118            
1 65154U 25171Y   25325.30679438 -.00000425  00000+0 -26713-4 0  9999
2 65154  51.9013 294.8515 0001842 117.9718 242.1431 14.79937983 16593
KUIPER-00119            
1 65155U 25171Z   25325.66672454  .00011726  00000+0  15695-2 0  9999
2 65155  51.9000 280.8450 0008919 122.0544 284.7872 14.79779155  5111
KUIPER-00120            
1 65762U 25217A   25325.66672454 -.00029797  00000+0 -26935-2 0  9992
2 65762  51.8899 171.4535 0015714 291.7587 322.1222 14.94773104  1309
KUIPER-00132            
1 65763U 25217B   25324.59745546  .00048777  00000+0  13371-2 0  9994
2 65763  51.8622 171.8002 0006139 296.1818  63.8537 15.36794917  8637
KUIPER-00133            
1 65764U 25217C   25325.66672454 -.00031372  00000+0 -28267-2 0  9996
2 65764  51.8902 171.3671 0009669 332.7276  93.6771 14.94988751  5454
KUIPER-00139            
1 65765U 25217D   25325.66672454 -.00008139  00000+0 -42998-3 0  9990
2 65765  51.8730 168.7888 0006546 299.0001 287.0214 15.13704214  5246
KUIPER-00142            
1 65766U 25217E   25325.53701691  .00046806  00000+0  12458-2 0  9991
2 65766  51.8671 166.8840 0002460 253.3004 106.7713 15.37740531  8786
KUIPER-00145            
1 65767U 25217F   25325.66672454 -.00730635  00000+0 -22820-1 0  9995
2 65767  51.8699 166.3848 0004223 277.4533  15.6355 15.35200885  5691
KUIPER-00147            
1 65768U 25217G   25325.66672454 -.00011345  00000+0 -37781-3 0  9990
2 65768  51.8654 166.8726 0007015 300.7737  93.7038 15.29591451  5354
KUIPER-00148            
1 65769U 25217H   25325.66672454 -.01578856  00000+0 -55768-1 0  9990
2 65769  51.8620 167.1035 0007806 320.1169 328.0261 15.31625861  5198
KUIPER-00150            
1 65770U 25217J   25325.66672454 -.00327795  00000+0 -23853-1 0  9995
2 65770  51.8950 169.8980 0007943 310.3405 359.8980 15.05019172  5564
KUIPER-00151            
1 65771U 25217K   25325.66672454 -.00984117  00000+0 -42352-1 0  9998
2 65771  51.8733 167.0492 0003347 253.2467  94.8382 15.24840958  5869
KUIPER-00152            
1 65772U 25217L   25324.66685987  .00037725  00000+0  98533-3 0  9999
2 65772  51.8685 170.8131 0002372 186.2943 173.8015 15.38420215  8655
KUIPER-00153            
1 65773U 25217M   25325.00002315  .00050491  00000+0  29533-2 0  9995
2 65773  51.8755 173.0410 0011829 303.4659  45.7292 15.11311214  4450
KUIPER-00155            
1 65774U 25217N   25324.00887386  .00017444  00000+0  49032-3 0  9992
2 65774  51.8631 174.6176 0005631 279.6312  80.4038 15.36585976  8547
KUIPER-00156            
1 65775U 25217P   25324.86963757  .00038827  00000+0  10171-2 0  9993
2 65775  51.8681 169.9222 0002303 223.7775 136.3030 15.38315577  8686
KUIPER-00158            
1 65776U 25217Q   25325.66672454 -.00619228  00000+0 -31116-1 0  9997
2 65776  51.8739 167.7710 0005174 254.2526 108.8046 15.19240781  4007
KUIPER-00163            
1 65777U 25217R   25325.66672454 -.00729083  00000+0 -44280-1 0  9995
2 65777  51.8715 168.7835 0010032 317.9559 191.6710 15.12569265  2520
